NORAD_CAT_ID,OBJECT_NAME,OBJECT_TYPE,EPOCH,MEAN_MOTION,ECCENTRICITY,INCLINATION,RA_OF_ASC_NODE,ARG_OF_PERICENTER,MEAN_ANOMALY,BSTAR,MEAN_MOTION_DOT,MEAN_MOTION_DDOT,TLE_LINE0,TLE_LINE1,TLE_LINE2,SEMIMAJOR_AXIS,PERIOD,APOGEE,PERIGEE,DECAYED
52609.0,STARLINK-3997,PAYLOAD,2023-02-28 02:11:50,15.08852078,0.0001186,53.2147,202.3438,79.3014,280.8112,0.00093897,0.00014692,0.0,0 STARLINK-3997,1 52609U 22052M   23059.09155782  .00014692  00000-0  93897-3 0  9990,2 52609  53.2147 202.3438 0001186  79.3014 280.8112 15.08852078 44327,6917.843,95.437,540.529,538.888,0.0
52609.0,STARLINK-3997,PAYLOAD,2023-02-28 13:19:32,15.08840436,9.48e-05,53.2142,200.262,88.1145,271.9956,0.00093493,0.00014623,0.0,0 STARLINK-3997,1 52609U 22052M   23059.55523956  .00014623  00000-0  93493-3 0  9999,2 52609  53.2142 200.2620 0000948  88.1145 271.9956 15.08840436 44029,6917.879,95.438,540.4,539.088,0.0
52609.0,STARLINK-3997,PAYLOAD,2023-02-28 16:30:18,15.0884365,9.94e-05,53.2141,199.6681,100.4561,259.6543,0.0011153,0.00017508,0.0,0 STARLINK-3997,1 52609U 22052M   23059.68771874  .00017508  00000-0  11153-2 0  9994,2 52609  53.2141 199.6681 0000994 100.4561 259.6543 15.08843650 44416,6917.869,95.437,540.422,539.047,0.0
52609.0,STARLINK-3997,PAYLOAD,2023-02-28 19:41:05,15.08847884,0.0001036,53.2145,199.0732,89.8353,270.2758,0.0011827,0.00018589,0.0,0 STARLINK-3997,1 52609U 22052M   23059.82019802  .00018589  00000-0  11827-2 0  9994,2 52609  53.2145 199.0732 0001036  89.8353 270.2758 15.08847884 44069,6917.856,95.437,540.438,539.005,0.0
52609.0,STARLINK-3997,PAYLOAD,2023-03-01 02:02:38,15.08821759,0.0001087,53.2141,197.8829,105.4918,254.6194,0.00014358,1.997e-05,0.0,0 STARLINK-3997,1 52609U 22052M   23060.08516507  .00001997  00000-0  14358-3 0  9996,2 52609  53.2141 197.8829 0001087 105.4918 254.6194 15.08821759 44474,6917.936,95.439,540.553,539.049,0.0
52609.0,STARLINK-3997,PAYLOAD,2023-03-01 13:10:21,15.08820953,0.0001364,53.2136,195.8021,107.2509,252.8632,0.00039376,5.981e-05,0.0,0 STARLINK-3997,1 52609U 22052M   23060.54885440  .00005981  00000-0  39376-3 0  9996,2 52609  53.2136 195.8021 0001364 107.2509 252.8632 15.08820953 44173,6917.939,95.439,540.747,538.86,0.0
52609.0,STARLINK-3997,PAYLOAD,2023-03-02 01:53:16,15.09169506,0.0001736,53.2134,193.4215,112.5778,247.5398,0.0079999,0.00130573,0.0,0 STARLINK-3997,1 52609U 22052M   23061.07866825  .00130573  00000-0  79999-2 0  9991,2 52609  53.2134 193.4215 0001736 112.5778 247.5398 15.09169506 44621,6916.873,95.417,539.939,537.538,0.0
52609.0,STARLINK-3997,PAYLOAD,2023-03-02 14:35:58,15.09678822,0.0002072,53.2139,191.0415,125.4978,234.6208,0.010668,0.00177855,0.0,0 STARLINK-3997,1 52609U 22052M   23061.60831500  .00177855  00000-0  10668-1 0  9993,2 52609  53.2139 191.0415 0002072 125.4978 234.6208 15.09678822 44703,6915.318,95.385,538.615,535.75,0.0
52609.0,STARLINK-3997,PAYLOAD,2023-03-03 08:00:01,15.10456568,0.0001738,53.2136,187.7792,101.0321,242.9651,0.0016251,0.00026849,0.0,0 STARLINK-3997,1 52609U 22052M   23062.33334491  .00026849  00000-0  16251-2 0  9992,2 52609  53.2136 187.7792 0001738 101.0321 242.9651 15.10456568 44819,6912.944,95.335,536.01,533.607,0.0
52609.0,STARLINK-3997,PAYLOAD,2023-03-03 14:00:01,15.10485921,0.0001696,53.2135,186.6555,89.7523,174.4299,-0.0025857,-0.00043093,0.0,0 STARLINK-3997,1 52609U 22052M   23062.58334491 -.00043093  00000-0 -25857-2 0  9993,2 52609  53.2135 186.6555 0001696  89.7523 174.4299 15.10485921  1301,6912.854,95.334,535.891,533.547,0.0
52609.0,STARLINK-3997,PAYLOAD,2023-03-03 22:00:00,15.10474126,0.0001594,53.2135,185.1553,85.3336,192.3988,-0.00074967,-0.0001275,0.0,0 STARLINK-3997,1 52609U 22052M   23062.91667824 -.00012750  00000-0 -74967-3 0  9992,2 52609  53.2135 185.1553 0001594  85.3336 192.3988 15.10474126  1303,6912.89,95.334,535.857,533.653,0.0
52609.0,STARLINK-3997,PAYLOAD,2023-03-04 06:00:00,15.10425082,0.0001401,53.2138,183.6536,83.8455,207.3929,0.0058328,0.00098017,0.0,0 STARLINK-3997,1 52609U 22052M   23063.25001157  .00098017  00000-0  58328-2 0  9991,2 52609  53.2138 183.6536 0001401  83.8455 207.3929 15.10425082 44959,6913.04,95.337,535.873,533.936,0.0
52609.0,STARLINK-3997,PAYLOAD,2023-03-04 14:00:01,15.10531909,0.0001454,53.2141,182.1551,80.9882,223.789,-0.0057995,-0.00095708,0.0,0 STARLINK-3997,1 52609U 22052M   23063.58334491 -.00095708  00000-0 -57995-2 0  9992,2 52609  53.2141 182.1551 0001454  80.9882 223.7890 15.10531909  1301,6912.714,95.331,535.584,533.574,0.0
52609.0,STARLINK-3997,PAYLOAD,2023-03-04 22:00:00,15.10453641,0.0001371,53.2142,180.6547,86.5006,231.8688,0.0017412,0.00028794,0.0,0 STARLINK-3997,1 52609U 22052M   23063.91667824  .00028794  00000-0  17412-2 0  9997,2 52609  53.2142 180.6547 0001371  86.5006 231.8688 15.10453641 45059,6912.953,95.336,535.765,533.87,0.0
52609.0,STARLINK-3997,PAYLOAD,2023-03-05 14:00:01,15.10631466,0.0001337,53.2148,177.6546,84.7591,260.731,-0.023932,-0.00379871,0.0,0 STARLINK-3997,1 52609U 22052M   23064.58334491 -.00379871  00000-0 -23932-1 0  9992,2 52609  53.2148 177.6546 0001337  84.7591 260.7310 15.10631466  1307,6912.41,95.324,535.199,533.351,0.0
52609.0,STARLINK-3997,PAYLOAD,2023-03-05 22:00:00,15.10409649,0.0001014,53.2149,176.1541,85.0383,274.021,-0.031408,-0.0049276,0.0,0 STARLINK-3997,1 52609U 22052M   23064.91667824 -.00492760  00000-0 -31408-1 0  9998,2 52609  53.2149 176.1541 0001014  85.0383 274.0210 15.10409649 45202,6913.087,95.338,535.653,534.251,0.0
52609.0,STARLINK-3997,PAYLOAD,2023-03-06 10:42:43,15.10065538,4.91e-05,53.2151,173.7717,63.6171,296.4872,-0.0085465,-0.00138274,0.0,0 STARLINK-3997,1 52609U 22052M   23065.44633258 -.00138274  00000-0 -85465-2 0  9991,2 52609  53.2151 173.7717 0000491  63.6171 296.4872 15.10065538 45283,6914.137,95.36,536.341,535.662,0.0
52609.0,STARLINK-3997,PAYLOAD,2023-03-06 18:39:23,15.09761828,0.0001306,53.2153,172.2832,88.8457,271.2685,-0.015456,-0.00244145,0.0,0 STARLINK-3997,1 52609U 22052M   23065.77735246 -.00244145  00000-0 -15456-1 0  9994,2 52609  53.2153 172.2832 0001306  88.8457 271.2685 15.09761828 45331,6915.064,95.379,537.832,536.026,0.0
52609.0,STARLINK-3997,PAYLOAD,2023-03-07 02:36:06,15.09603285,0.0001403,53.2154,170.796,97.5844,262.5308,-0.012947,-0.00204784,0.0,0 STARLINK-3997,1 52609U 22052M   23066.10840849 -.00204784  00000-0 -12947-1 0  9995,2 52609  53.2154 170.7960 0001403  97.5844 262.5308 15.09603285 45384,6915.548,95.389,538.384,536.443,0.0
52609.0,STARLINK-3997,PAYLOAD,2023-03-07 14:00:01,15.0883284,0.0001467,53.2156,168.6641,83.7241,337.7727,-0.00046951,-7.751e-05,0.0,0 STARLINK-3997,1 52609U 22052M   23066.58334491 -.00007751  00000-0 -46951-3 0  9997,2 52609  53.2156 168.6641 0001467  83.7241 337.7727 15.08832840 45454,6917.902,95.438,540.782,538.752,0.0
52609.0,STARLINK-3997,PAYLOAD,2023-03-07 22:00:00,15.0883767,0.0001186,53.2154,167.167,87.9102,345.1795,-0.0018404,-0.00029456,0.0,0 STARLINK-3997,1 52609U 22052M   23066.91667824 -.00029456  00000-0 -18404-2 0  9990,2 52609  53.2154 167.1670 0001186  87.9102 345.1795 15.08837670  1308,6917.888,95.438,540.573,538.932,0.0
52609.0,STARLINK-3997,PAYLOAD,2023-03-08 14:00:01,15.08895855,0.000124,53.2153,164.1752,77.6888,18.5694,-0.0085816,-0.00134527,0.0,0 STARLINK-3997,1 52609U 22052M   23067.58334491 -.00134527  00000-0 -85816-2 0  9992,2 52609  53.2153 164.1752 0001240  77.6888  18.5694 15.08895855 45602,6917.71,95.434,540.432,538.717,0.0
52609.0,STARLINK-3997,PAYLOAD,2023-03-08 22:00:00,15.08804495,0.0001248,53.2149,162.678,67.8986,39.9633,0.0011161,0.00017502,0.0,0 STARLINK-3997,1 52609U 22052M   23067.91667824  .00017502  00000-0  11161-2 0  9991,2 52609  53.2149 162.6780 0001248  67.8986  39.9633 15.08804495 45654,6917.989,95.44,540.717,538.991,0.0
52609.0,STARLINK-3997,PAYLOAD,2023-03-09 20:00:01,15.08819372,0.0001714,53.2142,158.5633,54.8686,354.8689,0.0031579,0.00050301,0.0,0 STARLINK-3997,1 52609U 22052M   23068.83334491  .00050301  00000-0  31579-2 0  9993,2 52609  53.2142 158.5633 0001714  54.8686 354.8689 15.08819372 45794,6917.943,95.439,540.994,538.623,0.0
52609.0,STARLINK-3997,PAYLOAD,2023-03-10 00:00:00,15.0882896,0.000159,53.2144,157.8142,59.4729,176.0564,0.0041827,0.00066892,0.0,0 STARLINK-3997,1 52609U 22052M   23069.00001157  .00066892  00000-0  41827-2 0  9992,2 52609  53.2144 157.8142 0001590  59.4729 176.0564 15.08828960  1302,6917.914,95.438,540.879,538.679,0.0
52609.0,STARLINK-3997,PAYLOAD,2023-03-10 14:00:01,15.08917995,0.0001587,53.214,155.1969,71.0108,94.8611,-0.012768,-0.00198371,0.0,0 STARLINK-3997,1 52609U 22052M   23069.58334491 -.00198371  00000-0 -12768-1 0  9996,2 52609  53.2140 155.1969 0001587  71.0108  94.8611 15.08917995 45904,6917.642,95.433,540.605,538.409,0.0
52609.0,STARLINK-3997,PAYLOAD,2023-03-10 22:00:00,15.08761657,0.0001437,53.2137,153.6992,85.9073,91.5536,0.0010313,0.00016128,0.0,0 STARLINK-3997,1 52609U 22052M   23069.91667824  .00016128  00000-0  10313-2 0  9994,2 52609  53.2137 153.6992 0001437  85.9073  91.5536 15.08761657 45955,6918.12,95.443,540.979,538.991,0.0
52609.0,STARLINK-3997,PAYLOAD,2023-03-10 22:48:25,15.08802516,0.0001585,53.2135,153.5487,81.4408,278.6763,9.107e-05,1.16e-05,0.0,0 STARLINK-3997,1 52609U 22052M   23069.95029074  .00001160  00000-0  91070-4 0  9998,2 52609  53.2135 153.5487 0001585  81.4408 278.6763 15.08802516 45969,6917.995,95.44,540.956,538.763,0.0
52609.0,STARLINK-3997,PAYLOAD,2023-03-11 09:56:08,15.0881588,0.0001497,53.2135,151.4668,84.0729,276.0434,0.003805,0.00060751,0.0,0 STARLINK-3997,1 52609U 22052M   23070.41398280  .00060751  00000-0  38050-2 0  9997,2 52609  53.2135 151.4668 0001497  84.0729 276.0434 15.08815880 46038,6917.954,95.439,540.855,538.783,0.0
52609.0,STARLINK-3997,PAYLOAD,2023-03-11 13:06:54,15.08827002,0.0001468,53.2135,150.8719,84.484,275.632,0.003205,0.00051071,0.0,0 STARLINK-3997,1 52609U 22052M   23070.54646425  .00051071  00000-0  32050-2 0  9997,2 52609  53.2135 150.8719 0001468  84.4840 275.6320 15.08827002 45682,6917.92,95.438,540.801,538.77,0.0
